[{"OBJECT_NAME":"239ALFEROV (RS61S)","OBJECT_ID":"2025-155F","EPOCH":"2026-03-09T21:46:33.382848","MEAN_MOTION":15.29933217,"ECCENTRICITY":0.00084878,"INCLINATION":97.4469,"RA_OF_ASC_NODE":37.6373,"ARG_OF_PERICENTER":151.5904,"MEAN_ANOMALY":208.58,"EPHEMERIS_TYPE":0,"CLASSIFICATION_TYPE":"U","NORAD_CAT_ID":64881,"ELEMENT_SET_NO":999,"REV_AT_EPOCH":6561,"BSTAR":0.00067233359,"MEAN_MOTION_DOT":0.00019457,"MEAN_MOTION_DDOT":0},{"OBJECT_NAME":"STARLINK-35931","OBJECT_ID":"2025-265D","EPOCH":"2026-03-09T22:59:56.213664","MEAN_MOTION":15.27591459,"ECCENTRICITY":0.00013912,"INCLINATION":42.9996,"RA_OF_ASC_NODE":276.4938,"ARG_OF_PERICENTER":249.1203,"MEAN_ANOMALY":110.95,"EPHEMERIS_TYPE":0,"CLASSIFICATION_TYPE":"U","NORAD_CAT_ID":66519,"ELEMENT_SET_NO":999,"REV_AT_EPOCH":1715,"BSTAR":0.00084454216,"MEAN_MOTION_DOT":0.00023059,"MEAN_MOTION_DDOT":0}]
